$$SOE
2461295.500000000, A.D. 2026-Sep-12 00:00:00.0000, 3.217020580097833E+08, 2.890449749038808E+08, -4.290440008506750E+07,
2461302.500000000, A.D. 2026-Sep-19 00:00:00.0000, 3.128650230492824E+08, 2.949584175669396E+08, -4.599748776402633E+07,
2461309.500000000, A.D. 2026-Sep-26 00:00:00.0000, 3.038401755989028E+08, 3.006947603413620E+08, -4.906295546443985E+07,
2461316.500000000, A.D. 2026-Oct-03 00:00:00.0000, 2.946301804365800E+08, 3.062478349002391E+08, -5.209851831579491E+07,
2461323.500000000, A.D. 2026-Oct-10 00:00:00.0000, 2.852379471626438E+08, 3.116114473618827E+08, -5.510184852246147E+07,
2461330.500000000, A.D. 2026-Oct-17 00:00:00.0000, 2.756666383909523E+08, 3.167793874123763E+08, -5.807057696228164E+07,
2461337.500000000, A.D. 2026-Oct-24 00:00:00.0000, 2.659196777417029E+08, 3.217454380686821E+08, -6.100229504750104E+07,
2461344.500000000, A.D. 2026-Oct-31 00:00:00.0000, 2.560007576772639E+08, 3.265033860323964E+08, -6.389455687678757E+07,
2461351.500000000, A.D. 2026-Nov-07 00:00:00.0000, 2.459138474579997E+08, 3.310470327201554E+08, -6.674488171684326E+07,
2461358.500000000, A.D. 2026-Nov-14 00:00:00.0000, 2.356632013518597E+08, 3.353702068638050E+08, -6.955075677162164E+07,
2461365.500000000, A.D. 2026-Nov-21 00:00:00.0000, 2.252533652109987E+08, 3.394667793602725E+08, -7.230964002658975E+07,
2461372.500000000, A.D. 2026-Nov-28 00:00:00.0000, 2.146891803341785E+08, 3.433306773601250E+08, -7.501896332947971E+07,
2461379.500000000, A.D. 2026-Dec-05 00:00:00.0000, 2.039757881529942E+08, 3.469558969369859E+08, -7.767613610180598E+07,
2461386.500000000, A.D. 2026-Dec-12 00:00:00.0000, 1.931186358258513E+08, 3.503365174375877E+08, -8.027854945020249E+07,
2461393.500000000, A.D. 2026-Dec-19 00:00:00.0000, 1.821234807672421E+08, 3.534667174979628E+08, -8.282358050974530E+07,
2461400.500000000, A.D. 2026-Dec-26 00:00:00.0000, 1.709963938830426E+08, 3.563407918288082E+08, -8.530859708111115E+07,
2461407.500000000, A.D. 2027-Jan-02 00:00:00.0000, 1.597437616995789E+08, 3.589531685404129E+08, -8.773096260400751E+07,
2461414.500000000, A.D. 2027-Jan-09 00:00:00.0000, 1.483722874140116E+08, 3.612984269782135E+08, -9.008804147434974E+07,
2461421.500000000, A.D. 2027-Jan-16 00:00:00.0000, 1.368889908114171E+08, 3.633713160183133E+08, -9.237720470265105E+07,
2461428.500000000, A.D. 2027-Jan-23 00:00:00.0000, 1.253012070053255E+08, 3.651667727135264E+08, -9.459583591240409E+07,
2461435.500000000, A.D. 2027-Jan-30 00:00:00.0000, 1.136165841024349E+08, 3.666799411621757E+08, -9.674133768720356E+07,
2461442.500000000, A.D. 2027-Feb-06 00:00:00.0000, 1.018430801333568E+08, 3.679061918500627E+08, -9.881113826196352E+07,
2461449.500000000, A.D. 2027-Feb-13 00:00:00.0000, 8.998895871334088E+07, 3.688411425853008E+08, -1.008026983970810E+08,
2461456.500000000, A.D. 2027-Feb-20 00:00:00.0000, 7.806278100073494E+07, 3.694806801205940E+08, -1.027135182580348E+08,
2461463.500000000, A.D. 2027-Feb-27 00:00:00.0000, 6.607339528482060E+07, 3.698209791257989E+08, -1.045411446601469E+08,
2461470.500000000, A.D. 2027-Mar-06 00:00:00.0000, 5.402992716972569E+07, 3.698585203075643E+08, -1.062831787670626E+08,
2461477.500000000, A.D. 2027-Mar-13 00:00:00.0000, 4.194176871875649E+07, 3.695901095876692E+08, -1.079372838928144E+08,
2461484.500000000, A.D. 2027-Mar-20 00:00:00.0000, 2.981856540535985E+07, 3.690128973571249E+08, -1.095011933297876E+08,
2461491.500000000, A.D. 2027-Mar-27 00:00:00.0000, 1.767020106209055E+07, 3.681243971039262E+08, -1.109727182199558E+08,
2461498.500000000, A.D. 2027-Apr-03 00:00:00.0000, 5.506781036211939E+06, 3.669225032095565E+08, -1.123497554425526E+08,
2461505.500000000, A.D. 2027-Apr-10 00:00:00.0000, -6.661386363745471E+06, 3.654055077772161E+08, -1.136302954692551E+08,
2461512.500000000, A.D. 2027-Apr-17 00:00:00.0000, -1.882381006719279E+07, 3.635721163162329E+08, -1.148124301344291E+08,
2461519.500000000, A.D. 2027-Apr-24 00:00:00.0000, -3.096983794734036E+07, 3.614214620602196E+08, -1.158943602746755E+08,
2461526.500000000, A.D. 2027-May-01 00:00:00.0000, -4.308867965526709E+07, 3.589531187898774E+08, -1.168744032030279E+08,
2461533.500000000, A.D. 2027-May-08 00:00:00.0000, -5.516943017717551E+07, 3.561671127584185E+08, -1.177509999245386E+08,
2461540.500000000, A.D. 2027-May-15 00:00:00.0000, -6.720109549370836E+07, 3.530639345319901E+08, -1.185227218186336E+08,
2461547.500000000, A.D. 2027-May-22 00:00:00.0000, -7.917262176594095E+07, 3.496445480195277E+08, -1.191882767952743E+08,
2461554.500000000, A.D. 2027-May-29 00:00:00.0000, -9.107292454008920E+07, 3.459103950999073E+08, -1.197465152903441E+08,
2461561.500000000, A.D. 2027-Jun-05 00:00:00.0000, -1.028909169201644E+08, 3.418633988762385E+08, -1.201964358706957E+08,
2461568.500000000, A.D. 2027-Jun-12 00:00:00.0000, -1.146155385304798E+08, 3.375059659046626E+08, -1.205371901782173E+08,
2461575.500000000, A.D. 2027-Jun-19 00:00:00.0000, -1.262357854010436E+08, 3.328409863939127E+08, -1.207680872091244E+08,
2461582.500000000, A.D. 2027-Jun-26 00:00:00.0000, -1.377407402899068E+08, 3.278718320665237E+08, -1.208885969307207E+08,
2461589.500000000, A.D. 2027-Jul-03 00:00:00.0000, -1.491196030965170E+08, 3.226023516651103E+08, -1.208983532087527E+08,
2461596.500000000, A.D. 2027-Jul-10 00:00:00.0000, -1.603617211104183E+08, 3.170368641110033E+08, -1.207971560164463E+08,
2461603.500000000, A.D. 2027-Jul-17 00:00:00.0000, -1.714566188378576E+08, 3.111801492986743E+08, -1.205849729071317E+08,
2461610.500000000, A.D. 2027-Jul-24 00:00:00.0000, -1.823940270293245E+08, 3.050374365088904E+08, -1.202619397522578E+08,
2461617.500000000, A.D. 2027-Jul-31 00:00:00.0000, -1.931639102799837E+08, 2.986143907443114E+08, -1.198283607522720E+08,
2461624.500000000, A.D. 2027-Aug-07 00:00:00.0000, -2.037564931956051E+08, 2.919170982290310E+08, -1.192847076041042E+08,
2461631.500000000, A.D. 2027-Aug-14 00:00:00.0000, -2.141622872289371E+08, 2.849520509305403E+08, -1.186316176402012E+08,
2461638.500000000, A.D. 2027-Aug-21 00:00:00.0000, -2.243721173837186E+08, 2.777261268705059E+08, -1.178698912830678E+08,
2461645.500000000, A.D. 2027-Aug-28 00:00:00.0000, -2.343771451892689E+08, 2.702465675719551E+08, -1.170004890506543E+08,
2461652.500000000, A.D. 2027-Sep-04 00:00:00.0000, -2.441688889844196E+08, 2.625209553097860E+08, -1.160245278325766E+08,
2461659.500000000, A.D. 2027-Sep-11 00:00:00.0000, -2.537392427795695E+08, 2.545571896862485E+08, -1.149432764051228E+08,
2461666.500000000, A.D. 2027-Sep-18 00:00:00.0000, -2.630804934545355E+08, 2.463634630727240E+08, -1.137581502950519E+08,
2461673.500000000, A.D. 2027-Sep-25 00:00:00.0000, -2.721853359766008E+08, 2.379482350370746E+08, -1.124707060677529E+08,
2461680.500000000, A.D. 2027-Oct-02 00:00:00.0000, -2.810468865006554E+08, 2.293202059848086E+08, -1.110826350968250E+08,
2461687.500000000, A.D. 2027-Oct-09 00:00:00.0000, -2.896586932895828E+08, 2.204882902115881E+08, -1.095957568736897E+08,
2461694.500000000, A.D. 2027-Oct-16 00:00:00.0000, -2.980147453755681E+08, 2.114615885129436E+08, -1.080120119266925E+08,
2461701.500000000, A.D. 2027-Oct-23 00:00:00.0000, -3.061094787086750E+08, 2.022493605423052E+08, -1.063334544352306E+08,
2461708.500000000, A.D. 2027-Oct-30 00:00:00.0000, -3.139377794455718E+08, 1.928609977178256E+08, -1.045622445857143E+08,
2461715.500000000, A.D. 2027-Nov-06 00:00:00.0000, -3.214949855904430E+08, 1.833059979874564E+08, -1.027006405335542E+08,
2461722.500000000, A.D. 2027-Nov-13 00:00:00.0000, -3.287768890420380E+08, 1.735939405485690E+08, -1.007509900226926E+08,
2461729.500000000, A.D. 2027-Nov-20 00:00:00.0000, -3.357797352270600E+08, 1.637344584981952E+08, -9.871572216869007E+07,
2461736.500000000, A.D. 2027-Nov-27 00:00:00.0000, -3.425002187960623E+08, 1.537372125225415E+08, -9.659733936741713E+07,
2461743.500000000, A.D. 2027-Dec-04 00:00:00.0000, -3.489354775161586E+08, 1.436118666675177E+08, -9.439840912462744E+07,
2461750.500000000, A.D. 2027-Dec-11 00:00:00.0000, -3.550830850338301E+08, 1.333680653423918E+08, -9.212155588913026E+07,
2461757.500000000, A.D. 2027-Dec-18 00:00:00.0000, -3.609410423613784E+08, 1.230154113185322E+08, -8.976945299190018E+07,
2461764.500000000, A.D. 2027-Dec-25 00:00:00.0000, -3.665077680686573E+08, 1.125634448049815E+08, -8.734481474966130E+07,
2461771.500000000, A.D. 2028-Jan-01 00:00:00.0000, -3.717820872764170E+08, 1.020216236829562E+08, -8.485038877566862E+07,
$$EOE